[{"OBJECT_NAME":"STARLINK-3727","OBJECT_ID":"2022-029AP","EPOCH":"2026-03-09T08:36:27.052416","MEAN_MOTION":15.0883726,"ECCENTRICITY":0.00019428,"INCLINATION":53.2172,"RA_OF_ASC_NODE":70.6049,"ARG_OF_PERICENTER":75.8388,"MEAN_ANOMALY":284.282,"EPHEMERIS_TYPE":0,"CLASSIFICATION_TYPE":"U","NORAD_CAT_ID":52125,"ELEMENT_SET_NO":999,"REV_AT_EPOCH":22088,"BSTAR":2.5531047e-5,"MEAN_MOTION_DOT":1.18e-6,"MEAN_MOTION_DDOT":0},{"OBJECT_NAME":"SL-6 R\/B(2)","OBJECT_ID":"1990-055D","EPOCH":"2026-03-09T21:41:59.551872","MEAN_MOTION":15.03595553,"ECCENTRICITY":0.00247741,"INCLINATION":62.7825,"RA_OF_ASC_NODE":253.121,"ARG_OF_PERICENTER":347.1508,"MEAN_ANOMALY":12.8957,"EPHEMERIS_TYPE":0,"CLASSIFICATION_TYPE":"U","NORAD_CAT_ID":20666,"ELEMENT_SET_NO":999,"REV_AT_EPOCH":93822,"BSTAR":0.00020900577,"MEAN_MOTION_DOT":2.688e-5,"MEAN_MOTION_DDOT":0}]
